0 COSMOS 2251 DEB
1 34573U 93036VK  13282.64388618  .00017186  00000-0  25935-2 0  8733
2 34573 074.0172 359.9037 0071546 208.5736 275.4414 14.72568727249534
0 COSMOS 2251 DEB
1 34573U 93036VK  13285.28179045  .00012382  00000-0  18699-2 0  8741
2 34573 074.0193 354.7628 0071054 202.7102 219.9078 14.72626767249924
0 COSMOS 2251 DEB
1 34573U 93036VK  13287.52388025  .00013248  00000-0  19974-2 0  8750
2 34573 074.0170 350.3901 0071199 198.1867 226.0428 14.72674655250256
0 COSMOS 2251 DEB
1 34573U 93036VK  13289.14742736  .00017529  00000-0  26364-2 0  8761
2 34573 074.0162 347.2244 0070986 194.7214 193.5724 14.72736690250494
0 COSMOS 2251 DEB
1 34573U 93036VK  13290.59705705  .00016890  00000-0  25390-2 0  8776
2 34573 074.0156 344.3976 0070848 191.5808 319.3429 14.72771254250707
0 COSMOS 2251 DEB
1 34573U 93036VK  13292.20951845  .00012757  00000-0  19184-2 0  8787
2 34573 074.0157 341.2539 0070690 187.9785 228.7727 14.72816124250943
0 COSMOS 2251 DEB
1 34573U 93036VK  13294.53138441  .00016597  00000-0  24909-2 0  8792
2 34573 074.0154 336.7252 0070386 182.9646 299.7741 14.72866287251281
